IRIDIUM 7               
1 24793U 97020B   25325.93778787  .00000489  00000+0  16137-3 0  9997
2 24793  86.3937 110.8217 0001842  83.0779 277.0628 14.36079007494536
IRIDIUM 5               
1 24795U 97020D   25326.12572524  .00005143  00000+0  40740-3 0  9991
2 24795  86.3896  10.8024 0102550 291.1759  67.8536 14.96227138509069
IRIDIUM 4               
1 24796U 97020E   25325.89194251  .00000501  00000+0  16254-3 0  9998
2 24796  86.3935 107.6117 0002033  87.3004 272.8426 14.36983527495116
IRIDIUM 914             
1 24836U 97030A   25325.93915655  .00000563  00000+0  16902-3 0  9996
2 24836  86.3913 115.7307 0003489  76.5459 283.6129 14.41036567629846
IRIDIUM 16              
1 24841U 97030F   25325.99736941  .00000490  00000+0  15299-3 0  9994
2 24841  86.4022 139.0334 0000080 240.6673 119.4517 14.38856828489699
IRIDIUM 911             
1 24842U 97030G   25325.98180425  .00000660  00000+0  17284-3 0  9999
2 24842  86.4446 137.6370 0012224 295.4566  64.5372 14.47852584497914
IRIDIUM 17              
1 24870U 97034B   25326.08054403  .00000444  00000+0  14052-3 0  9992
2 24870  86.3978 168.4189 0001623 138.6898 221.4422 14.37996564486274
IRIDIUM 920             
1 24871U 97034C   25325.99550495  .00000480  00000+0  14130-3 0  9991
2 24871  86.3970 147.3336 0009499 283.9684  76.0460 14.41698263489317
